CCSDS_OMM_VERS = 2.0
CREATION_DATE  = 
ORIGINATOR     = 

OBJECT_NAME    = STARLINK-36277
OBJECT_ID      = 2026-057M
CENTER_NAME    = EARTH
REF_FRAME      = TEME
TIME_SYSTEM    = UTC
MEAN_ELEMENT_THEORY = SGP/SGP4

EPOCH          = 2026-03-30T22:00:00.999936
MEAN_MOTION    = 15.98128219
ECCENTRICITY   = .00013049
INCLINATION    = 97.2778
RA_OF_ASC_NODE = 213.2295
ARG_OF_PERICENTER = 73.3353
MEAN_ANOMALY   = 291.6905

EPHEMERIS_TYPE = 0
CLASSIFICATION_TYPE = U
NORAD_CAT_ID   = 68305
ELEMENT_SET_NO = 999
REV_AT_EPOCH   = 278
BSTAR          = -.3257238E-2
MEAN_MOTION_DOT = -.1476393E-1
MEAN_MOTION_DDOT = .66036186E-3

CCSDS_OMM_VERS = 2.0
CREATION_DATE  = 
ORIGINATOR     = 

OBJECT_NAME    = STARLINK-36307
OBJECT_ID      = 2026-057N
CENTER_NAME    = EARTH
REF_FRAME      = TEME
TIME_SYSTEM    = UTC
MEAN_ELEMENT_THEORY = SGP/SGP4

EPOCH          = 2026-03-30T22:00:00.999936
MEAN_MOTION    = 15.98042559
ECCENTRICITY   = .00012548
INCLINATION    = 97.2784
RA_OF_ASC_NODE = 213.2283
ARG_OF_PERICENTER = 59.6732
MEAN_ANOMALY   = 301.3044

EPHEMERIS_TYPE = 0
CLASSIFICATION_TYPE = U
NORAD_CAT_ID   = 68306
ELEMENT_SET_NO = 999
REV_AT_EPOCH   = 272
BSTAR          = -.32472452E-2
MEAN_MOTION_DOT = -.1465046E-1
MEAN_MOTION_DDOT = .65038046E-3

CCSDS_OMM_VERS = 2.0
CREATION_DATE  = 
ORIGINATOR     = 

OBJECT_NAME    = STARLINK-36264
OBJECT_ID      = 2026-057P
CENTER_NAME    = EARTH
REF_FRAME      = TEME
TIME_SYSTEM    = UTC
MEAN_ELEMENT_THEORY = SGP/SGP4

EPOCH          = 2026-03-30T22:00:00.999936
MEAN_MOTION    = 15.98216382
ECCENTRICITY   = .00013143
INCLINATION    = 97.2780
RA_OF_ASC_NODE = 213.2316
ARG_OF_PERICENTER = 63.9905
MEAN_ANOMALY   = 305.3413

EPHEMERIS_TYPE = 0
CLASSIFICATION_TYPE = U
NORAD_CAT_ID   = 68307
ELEMENT_SET_NO = 999
REV_AT_EPOCH   = 278
BSTAR          = -.32426401E-2
MEAN_MOTION_DOT = -.1476944E-1
MEAN_MOTION_DDOT = .66145809E-3

CCSDS_OMM_VERS = 2.0
CREATION_DATE  = 
ORIGINATOR     = 

OBJECT_NAME    = STARLINK-37138
OBJECT_ID      = 2026-057Q
CENTER_NAME    = EARTH
REF_FRAME      = TEME
TIME_SYSTEM    = UTC
MEAN_ELEMENT_THEORY = SGP/SGP4

EPOCH          = 2026-03-30T22:00:00.999936
MEAN_MOTION    = 15.98307472
ECCENTRICITY   = .00013154
INCLINATION    = 97.2773
RA_OF_ASC_NODE = 213.2319
ARG_OF_PERICENTER = 61.2587
MEAN_ANOMALY   = 310.6776

EPHEMERIS_TYPE = 0
CLASSIFICATION_TYPE = U
NORAD_CAT_ID   = 68308
ELEMENT_SET_NO = 999
REV_AT_EPOCH   = 245
BSTAR          = -.32180191E-2
MEAN_MOTION_DOT = -.1473171E-1
MEAN_MOTION_DDOT = .65898494E-3

CCSDS_OMM_VERS = 2.0
CREATION_DATE  = 
ORIGINATOR     = 

OBJECT_NAME    = STARLINK-37149
OBJECT_ID      = 2026-057R
CENTER_NAME    = EARTH
REF_FRAME      = TEME
TIME_SYSTEM    = UTC
MEAN_ELEMENT_THEORY = SGP/SGP4

EPOCH          = 2026-03-30T22:00:00.999936
MEAN_MOTION    = 15.98397570
ECCENTRICITY   = .00013967
INCLINATION    = 97.2769
RA_OF_ASC_NODE = 213.2332
ARG_OF_PERICENTER = 57.8411
MEAN_ANOMALY   = 317.3901

EPHEMERIS_TYPE = 0
CLASSIFICATION_TYPE = U
NORAD_CAT_ID   = 68309
ELEMENT_SET_NO = 999
REV_AT_EPOCH   = 256
BSTAR          = -.32073433E-2
MEAN_MOTION_DOT = -.1475612E-1
MEAN_MOTION_DDOT = .66166414E-3

CCSDS_OMM_VERS = 2.0
CREATION_DATE  = 
ORIGINATOR     = 

OBJECT_NAME    = STARLINK-37148
OBJECT_ID      = 2026-057S
CENTER_NAME    = EARTH
REF_FRAME      = TEME
TIME_SYSTEM    = UTC
MEAN_ELEMENT_THEORY = SGP/SGP4

EPOCH          = 2026-03-30T22:00:00.999936
MEAN_MOTION    = 15.98583563
ECCENTRICITY   = .00014222
INCLINATION    = 97.2769
RA_OF_ASC_NODE = 213.2364
ARG_OF_PERICENTER = 55.8989
MEAN_ANOMALY   = 326.1953

EPHEMERIS_TYPE = 0
CLASSIFICATION_TYPE = U
NORAD_CAT_ID   = 68310
ELEMENT_SET_NO = 999
REV_AT_EPOCH   = 267
BSTAR          = -.31924602E-2
MEAN_MOTION_DOT = -.1483896E-1
MEAN_MOTION_DDOT = .66993488E-3

CCSDS_OMM_VERS = 2.0
CREATION_DATE  = 
ORIGINATOR     = 

OBJECT_NAME    = STARLINK-37140
OBJECT_ID      = 2026-057T
CENTER_NAME    = EARTH
REF_FRAME      = TEME
TIME_SYSTEM    = UTC
MEAN_ELEMENT_THEORY = SGP/SGP4

EPOCH          = 2026-03-30T22:00:00.999936
MEAN_MOTION    = 15.98489006
ECCENTRICITY   = .00013437
INCLINATION    = 97.2771
RA_OF_ASC_NODE = 213.2354
ARG_OF_PERICENTER = 70.7990
MEAN_ANOMALY   = 308.0600

EPHEMERIS_TYPE = 0
CLASSIFICATION_TYPE = U
NORAD_CAT_ID   = 68311
ELEMENT_SET_NO = 999
REV_AT_EPOCH   = 283
BSTAR          = -.32090125E-2
MEAN_MOTION_DOT = -.1483771E-1
MEAN_MOTION_DDOT = .6691312E-3

CCSDS_OMM_VERS = 2.0
CREATION_DATE  = 
ORIGINATOR     = 

OBJECT_NAME    = STARLINK-36854
OBJECT_ID      = 2026-057U
CENTER_NAME    = EARTH
REF_FRAME      = TEME
TIME_SYSTEM    = UTC
MEAN_ELEMENT_THEORY = SGP/SGP4

EPOCH          = 2026-03-30T22:00:00.999936
MEAN_MOTION    = 15.98672796
ECCENTRICITY   = .00014117
INCLINATION    = 97.2768
RA_OF_ASC_NODE = 213.2382
ARG_OF_PERICENTER = 57.8489
MEAN_ANOMALY   = 327.3885

EPHEMERIS_TYPE = 0
CLASSIFICATION_TYPE = U
NORAD_CAT_ID   = 68312
ELEMENT_SET_NO = 999
REV_AT_EPOCH   = 262
BSTAR          = -.31590886E-2
MEAN_MOTION_DOT = -.1475769E-1
MEAN_MOTION_DDOT = .66379665E-3

CCSDS_OMM_VERS = 2.0
CREATION_DATE  = 
ORIGINATOR     = 

OBJECT_NAME    = STARLINK-36815
OBJECT_ID      = 2026-057V
CENTER_NAME    = EARTH
REF_FRAME      = TEME
TIME_SYSTEM    = UTC
MEAN_ELEMENT_THEORY = SGP/SGP4

EPOCH          = 2026-03-30T22:00:00.999936
MEAN_MOTION    = 15.98772490
ECCENTRICITY   = .00012924
INCLINATION    = 97.2769
RA_OF_ASC_NODE = 213.2401
ARG_OF_PERICENTER = 72.7879
MEAN_ANOMALY   = 316.1957

EPHEMERIS_TYPE = 0
CLASSIFICATION_TYPE = U
NORAD_CAT_ID   = 68313
ELEMENT_SET_NO = 999
REV_AT_EPOCH   = 262
BSTAR          = -.31747403E-2
MEAN_MOTION_DOT = -.1491117E-1
MEAN_MOTION_DDOT = .67739665E-3

CCSDS_OMM_VERS = 2.0
CREATION_DATE  = 
ORIGINATOR     = 

OBJECT_NAME    = STARLINK-37155
OBJECT_ID      = 2026-057W
CENTER_NAME    = EARTH
REF_FRAME      = TEME
TIME_SYSTEM    = UTC
MEAN_ELEMENT_THEORY = SGP/SGP4

EPOCH          = 2026-03-30T22:00:00.999936
MEAN_MOTION    = 15.98967600
ECCENTRICITY   = .00014523
INCLINATION    = 97.2763
RA_OF_ASC_NODE = 213.2431
ARG_OF_PERICENTER = 59.9105
MEAN_ANOMALY   = 336.8749

EPHEMERIS_TYPE = 0
CLASSIFICATION_TYPE = U
NORAD_CAT_ID   = 68314
ELEMENT_SET_NO = 999
REV_AT_EPOCH   = 267
BSTAR          = -.31470167E-2
MEAN_MOTION_DOT = -.1494244E-1
MEAN_MOTION_DDOT = .68150496E-3

CCSDS_OMM_VERS = 2.0
CREATION_DATE  = 
ORIGINATOR     = 

OBJECT_NAME    = STARLINK-37150
OBJECT_ID      = 2026-057X
CENTER_NAME    = EARTH
REF_FRAME      = TEME
TIME_SYSTEM    = UTC
MEAN_ELEMENT_THEORY = SGP/SGP4

EPOCH          = 2026-03-30T22:00:00.999936
MEAN_MOTION    = 15.98867667
ECCENTRICITY   = .00013742
INCLINATION    = 97.2765
RA_OF_ASC_NODE = 213.2417
ARG_OF_PERICENTER = 62.7158
MEAN_ANOMALY   = 330.4332

EPHEMERIS_TYPE = 0
CLASSIFICATION_TYPE = U
NORAD_CAT_ID   = 68315
ELEMENT_SET_NO = 999
REV_AT_EPOCH   = 267
BSTAR          = -.31457216E-2
MEAN_MOTION_DOT = -.1485418E-1
MEAN_MOTION_DDOT = .67331183E-3

CCSDS_OMM_VERS = 2.0
CREATION_DATE  = 
ORIGINATOR     = 

OBJECT_NAME    = STARLINK-37154
OBJECT_ID      = 2026-057Y
CENTER_NAME    = EARTH
REF_FRAME      = TEME
TIME_SYSTEM    = UTC
MEAN_ELEMENT_THEORY = SGP/SGP4

EPOCH          = 2026-03-30T22:00:00.999936
MEAN_MOTION    = 15.99170231
ECCENTRICITY   = .0001349
INCLINATION    = 97.2759
RA_OF_ASC_NODE = 213.2466
ARG_OF_PERICENTER = 67.6728
MEAN_ANOMALY   = 337.0382

EPHEMERIS_TYPE = 0
CLASSIFICATION_TYPE = U
NORAD_CAT_ID   = 68316
ELEMENT_SET_NO = 999
REV_AT_EPOCH   = 257
BSTAR          = -.31133792E-2
MEAN_MOTION_DOT = -.1495056E-1
MEAN_MOTION_DDOT = .68372283E-3

