STARLINK-36277          
1 68305U 26057M   26089.91667824 -.01476393  66036-3 -32572-2 0  9990
2 68305  97.2778 213.2295 0001304  73.3353 291.6905 15.98128219  2785
STARLINK-36307          
1 68306U 26057N   26089.91667824 -.01465046  65038-3 -32472-2 0  9994
2 68306  97.2784 213.2283 0001254  59.6732 301.3044 15.98042559  2721
STARLINK-36264          
1 68307U 26057P   26089.91667824 -.01476944  66146-3 -32426-2 0  9994
2 68307  97.2780 213.2316 0001314  63.9905 305.3413 15.98216382  2789
STARLINK-37138          
1 68308U 26057Q   26089.91667824 -.01473171  65898-3 -32180-2 0  9994
2 68308  97.2773 213.2319 0001315  61.2587 310.6776 15.98307472  2459
STARLINK-37149          
1 68309U 26057R   26089.91667824 -.01475612  66166-3 -32073-2 0  9997
2 68309  97.2769 213.2332 0001396  57.8411 317.3901 15.98397570  2560
STARLINK-37148          
1 68310U 26057S   26089.91667824 -.01483896  66993-3 -31925-2 0  9995
2 68310  97.2769 213.2364 0001422  55.8989 326.1953 15.98583563  2671
STARLINK-37140          
1 68311U 26057T   26089.91667824 -.01483771  66913-3 -32090-2 0  9994
2 68311  97.2771 213.2354 0001343  70.7990 308.0600 15.98489006  2837
STARLINK-36854          
1 68312U 26057U   26089.91667824 -.01475769  66380-3 -31591-2 0  9996
2 68312  97.2768 213.2382 0001411  57.8489 327.3885 15.98672796  2626
STARLINK-36815          
1 68313U 26057V   26089.91667824 -.01491117  67740-3 -31747-2 0  9996
2 68313  97.2769 213.2401 0001292  72.7879 316.1957 15.98772490  2624
STARLINK-37155          
1 68314U 26057W   26089.91667824 -.01494244  68150-3 -31470-2 0  9990
2 68314  97.2763 213.2431 0001452  59.9105 336.8749 15.98967600  2671
STARLINK-37150          
1 68315U 26057X   26089.91667824 -.01485418  67331-3 -31457-2 0  9999
2 68315  97.2765 213.2417 0001374  62.7158 330.4332 15.98867667  2671
STARLINK-37154          
1 68316U 26057Y   26089.91667824 -.01495056  68372-3 -31134-2 0  9997
2 68316  97.2759 213.2466 0001349  67.6728 337.0382 15.99170231  2570
